{
  "type": "FeatureCollection",
  "features": [
    {
      "type": "Feature",
      "properties": { "name": "Ring of Fire (approximate plate boundaries, split at the antimeridian)" },
      "geometry": {
        "type": "MultiLineString",
        "coordinates": [
          [[-75, -50], [-74, -40], [-72.5, -30], [-71.5, -20], [-76, -12], [-81, -4], [-80, 3], [-84, 9], [-90, 13], [-98, 16], [-105, 19], [-112, 25], [-122, 35], [-125, 42], [-127, 48], [-135, 56], [-148, 59], [-158, 55], [-166, 53], [-175, 51.5], [-180, 51.2]],
          [[180, 51.2], [172, 52.5], [164, 54], [160, 53], [156, 50], [150, 46], [146, 43], [142, 38], [141, 34], [142, 28], [143, 20], [145, 14], [137, 10], [127, 8], [125, 2], [122, -4], [118, -9], [110, -9.5], [103, -6], [97, 1], [94, 8]],
          [[-172, -15], [-174, -20], [-176, -26], [-178, -32], [-180, -35]],
          [[180, -35], [178, -38], [175, -41], [172, -43]]
        ]
      }
    }
  ]
}
