{
  "type": "FeatureCollection",
  "features": [
    { "type": "Feature", "geometry": { "type": "Point", "coordinates": [-118.2, 34.1] }, "properties": { "mag": 4.4 } },
    { "type": "Feature", "geometry": { "type": "Point", "coordinates": [-118.3, 34.0] }, "properties": { "mag": 2.9 } },
    { "type": "Feature", "geometry": { "type": "Point", "coordinates": [-118.25, 34.05] }, "properties": { "mag": 3.6 } },
    { "type": "Feature", "geometry": { "type": "Point", "coordinates": [-118.1, 34.2] }, "properties": { "mag": 5.1 } },
    { "type": "Feature", "geometry": { "type": "Point", "coordinates": [-118.4, 33.9] }, "properties": { "mag": 2.2 } },
    { "type": "Feature", "geometry": { "type": "Point", "coordinates": [-118.15, 34.0] }, "properties": { "mag": 3.9 } },
    { "type": "Feature", "geometry": { "type": "Point", "coordinates": [-118.35, 34.15] }, "properties": { "mag": 4.7 } },
    { "type": "Feature", "geometry": { "type": "Point", "coordinates": [-118.28, 34.08] }, "properties": { "mag": 3.2 } }
  ]
}
