{"type":"FeatureCollection","features":[{"type":"Feature","properties":{"name":"Vatican City","country":"Vatican","pop":832},"geometry":{"type":"Point","coordinates":[12.453,41.903]}},{"type":"Feature","properties":{"name":"San Marino","country":"San Marino","pop":29579},"geometry":{"type":"Point","coordinates":[12.442,43.936]}},{"type":"Feature","properties":{"name":"Vaduz","country":"Liechtenstein","pop":36281},"geometry":{"type":"Point","coordinates":[9.517,47.134]}},{"type":"Feature","properties":{"name":"Lobamba","country":"eSwatini","pop":9782},"geometry":{"type":"Point","coordinates":[31.2,-26.467]}},{"type":"Feature","properties":{"name":"Luxembourg","country":"Luxembourg","pop":107260},"geometry":{"type":"Point","coordinates":[6.13,49.612]}},{"type":"Feature","properties":{"name":"Palikir","country":"Federated States of Micronesia","pop":4645},"geometry":{"type":"Point","coordinates":[158.15,6.917]}},{"type":"Feature","properties":{"name":"Majuro","country":"Marshall Islands","pop":25400},"geometry":{"type":"Point","coordinates":[171.38,7.103]}},{"type":"Feature","properties":{"name":"Funafuti","country":"Tuvalu","pop":4749},"geometry":{"type":"Point","coordinates":[179.217,-8.517]}},{"type":"Feature","properties":{"name":"Melekeok","country":"Palau","pop":7026},"geometry":{"type":"Point","coordinates":[134.627,7.487]}},{"type":"Feature","properties":{"name":"Bir Lehlou","country":"Western Sahara","pop":500},"geometry":{"type":"Point","coordinates":[-9.653,26.119]}},{"type":"Feature","properties":{"name":"Monaco","country":"Monaco","pop":36371},"geometry":{"type":"Point","coordinates":[7.407,43.74]}},{"type":"Feature","properties":{"name":"Tarawa","country":"Kiribati","pop":28802},"geometry":{"type":"Point","coordinates":[173.018,1.338]}},{"type":"Feature","properties":{"name":"Moroni","country":"Comoros","pop":128698},"geometry":{"type":"Point","coordinates":[43.24,-11.704]}},{"type":"Feature","properties":{"name":"Andorra","country":"Andorra","pop":53998},"geometry":{"type":"Point","coordinates":[1.527,42.511]}},{"type":"Feature","properties":{"name":"Port-of-Spain","country":"Trinidad and Tobago","pop":294934},"geometry":{"type":"Point","coordinates":[-61.517,10.652]}},{"type":"Feature","properties":{"name":"Kigali","country":"Rwanda","pop":860000},"geometry":{"type":"Point","coordinates":[30.059,-1.952]}},{"type":"Feature","properties":{"name":"Mbabane","country":"eSwatini","pop":90138},"geometry":{"type":"Point","coordinates":[31.133,-26.317]}},{"type":"Feature","properties":{"name":"Juba","country":"South Sudan","pop":111975},"geometry":{"type":"Point","coordinates":[31.58,4.83]}},{"type":"Feature","properties":{"name":"The Hague","country":"Netherlands","pop":1406000},"geometry":{"type":"Point","coordinates":[4.27,52.08]}},{"type":"Feature","properties":{"name":"Ljubljana","country":"Slovenia","pop":314807},"geometry":{"type":"Point","coordinates":[14.515,46.055]}},{"type":"Feature","properties":{"name":"Bratislava","country":"Slovakia","pop":423737},"geometry":{"type":"Point","coordinates":[17.117,48.15]}},{"type":"Feature","properties":{"name":"Doha","country":"Qatar","pop":1450000},"geometry":{"type":"Point","coordinates":[51.533,25.287]}},{"type":"Feature","properties":{"name":"Podgorica","country":"Montenegro","pop":145850},"geometry":{"type":"Point","coordinates":[19.266,42.466]}},{"type":"Feature","properties":{"name":"Sri Jayawardenepura Kotte","country":"Sri Lanka","pop":115826},"geometry":{"type":"Point","coordinates":[79.95,6.9]}},{"type":"Feature","properties":{"name":"Baguio","country":"Philippines","pop":447824},"geometry":{"type":"Point","coordinates":[120.57,16.43]}},{"type":"Feature","properties":{"name":"Dodoma","country":"Tanzania","pop":218269},"geometry":{"type":"Point","coordinates":[35.75,-6.183]}},{"type":"Feature","properties":{"name":"Bern","country":"Switzerland","pop":275329},"geometry":{"type":"Point","coordinates":[7.467,46.917]}},{"type":"Feature","properties":{"name":"Laayoune","country":"Morocco","pop":188084},"geometry":{"type":"Point","coordinates":[-13.2,27.15]}},{"type":"Feature","properties":{"name":"Pristina","country":"Kosovo","pop":465186},"geometry":{"type":"Point","coordinates":[21.166,42.667]}},{"type":"Feature","properties":{"name":"Roseau","country":"Dominica","pop":23336},"geometry":{"type":"Point","coordinates":[-61.387,15.301]}},{"type":"Feature","properties":{"name":"Djibouti","country":"Djibouti","pop":923000},"geometry":{"type":"Point","coordinates":[43.148,11.595]}},{"type":"Feature","properties":{"name":"Putrajaya","country":"Malaysia","pop":67964},"geometry":{"type":"Point","coordinates":[101.695,2.933]}},{"type":"Feature","properties":{"name":"Kyoto","country":"Japan","pop":1805000},"geometry":{"type":"Point","coordinates":[135.748,35.032]}},{"type":"Feature","properties":{"name":"Banjul","country":"The Gambia","pop":43094},"geometry":{"type":"Point","coordinates":[-16.592,13.454]}},{"type":"Feature","properties":{"name":"Skopje","country":"North Macedonia","pop":494087},"geometry":{"type":"Point","coordinates":[21.433,42.0]}},{"type":"Feature","properties":{"name":"Bridgetown","country":"Barbados","pop":191152},"geometry":{"type":"Point","coordinates":[-59.617,13.102]}},{"type":"Feature","properties":{"name":"Porto-Novo","country":"Benin","pop":300000},"geometry":{"type":"Point","coordinates":[2.617,6.483]}},{"type":"Feature","properties":{"name":"Bujumbura","country":"Burundi","pop":331700},"geometry":{"type":"Point","coordinates":[29.36,-3.376]}},{"type":"Feature","properties":{"name":"Kingstown","country":"Saint Vincent and the Grenadines","pop":49485},"geometry":{"type":"Point","coordinates":[-61.22,13.156]}},{"type":"Feature","properties":{"name":"Castries","country":"Saint Lucia","pop":37963},"geometry":{"type":"Point","coordinates":[-60.993,14.008]}},{"type":"Feature","properties":{"name":"Basseterre","country":"Saint Kitts and Nevis","pop":21887},"geometry":{"type":"Point","coordinates":[-62.717,17.302]}},{"type":"Feature","properties":{"name":"Port Louis","country":"Mauritius","pop":595491},"geometry":{"type":"Point","coordinates":[57.5,-20.167]}},{"type":"Feature","properties":{"name":"Saint George's","country":"Grenada","pop":33734},"geometry":{"type":"Point","coordinates":[-61.742,12.053]}},{"type":"Feature","properties":{"name":"Manama","country":"Bahrain","pop":563920},"geometry":{"type":"Point","coordinates":[50.583,26.236]}},{"type":"Feature","properties":{"name":"Saint John's","country":"Antigua and Barbuda","pop":35499},"geometry":{"type":"Point","coordinates":[-61.85,17.118]}},{"type":"Feature","properties":{"name":"Montevideo","country":"Uruguay","pop":1513000},"geometry":{"type":"Point","coordinates":[-56.187,-34.905]}},{"type":"Feature","properties":{"name":"Lom\u00e9","country":"Togo","pop":1452000},"geometry":{"type":"Point","coordinates":[1.221,6.134]}},{"type":"Feature","properties":{"name":"Tunis","country":"Tunisia","pop":2412500},"geometry":{"type":"Point","coordinates":[10.18,36.803]}},{"type":"Feature","properties":{"name":"Abu Dhabi","country":"United Arab Emirates","pop":603492},"geometry":{"type":"Point","coordinates":[54.367,24.467]}},{"type":"Feature","properties":{"name":"Ashgabat","country":"Turkmenistan","pop":727700},"geometry":{"type":"Point","coordinates":[58.383,37.95]}},{"type":"Feature","properties":{"name":"Lusaka","country":"Zambia","pop":1328000},"geometry":{"type":"Point","coordinates":[28.281,-15.415]}},{"type":"Feature","properties":{"name":"Harare","country":"Zimbabwe","pop":1572000},"geometry":{"type":"Point","coordinates":[31.043,-17.816]}},{"type":"Feature","properties":{"name":"Dili","country":"East Timor","pop":234331},"geometry":{"type":"Point","coordinates":[125.579,-8.559]}},{"type":"Feature","properties":{"name":"Port Vila","country":"Vanuatu","pop":44040},"geometry":{"type":"Point","coordinates":[168.317,-17.733]}},{"type":"Feature","properties":{"name":"Tegucigalpa","country":"Honduras","pop":946000},"geometry":{"type":"Point","coordinates":[-87.219,14.104]}},{"type":"Feature","properties":{"name":"Georgetown","country":"Guyana","pop":264350},"geometry":{"type":"Point","coordinates":[-58.167,6.802]}},{"type":"Feature","properties":{"name":"Reykjav\u00edk","country":"Iceland","pop":166212},"geometry":{"type":"Point","coordinates":[-21.937,64.143]}},{"type":"Feature","properties":{"name":"Port-au-Prince","country":"Haiti","pop":1998000},"geometry":{"type":"Point","coordinates":[-72.338,18.543]}},{"type":"Feature","properties":{"name":"Kampala","country":"Uganda","pop":1420000},"geometry":{"type":"Point","coordinates":[32.581,0.319]}},{"type":"Feature","properties":{"name":"Paramaribo","country":"Suriname","pop":254169},"geometry":{"type":"Point","coordinates":[-55.167,5.835]}},{"type":"Feature","properties":{"name":"Niamey","country":"Niger","pop":915000},"geometry":{"type":"Point","coordinates":[2.115,13.519]}},{"type":"Feature","properties":{"name":"Dushanbe","country":"Tajikistan","pop":1086244},"geometry":{"type":"Point","coordinates":[68.774,38.56]}},{"type":"Feature","properties":{"name":"Asunci\u00f3n","country":"Paraguay","pop":1870000},"geometry":{"type":"Point","coordinates":[-57.626,-25.291]}},{"type":"Feature","properties":{"name":"Managua","country":"Nicaragua","pop":920000},"geometry":{"type":"Point","coordinates":[-86.27,12.155]}},{"type":"Feature","properties":{"name":"Freetown","country":"Sierra Leone","pop":827000},"geometry":{"type":"Point","coordinates":[-13.236,8.472]}},{"type":"Feature","properties":{"name":"Islamabad","country":"Pakistan","pop":780000},"geometry":{"type":"Point","coordinates":[73.081,33.689]}},{"type":"Feature","properties":{"name":"Kathmandu","country":"Nepal","pop":895000},"geometry":{"type":"Point","coordinates":[85.315,27.719]}},{"type":"Feature","properties":{"name":"Bloemfontein","country":"South Africa","pop":463064},"geometry":{"type":"Point","coordinates":[26.23,-29.12]}},{"type":"Feature","properties":{"name":"Pretoria","country":"South Africa","pop":1338000},"geometry":{"type":"Point","coordinates":[28.227,-25.705]}},{"type":"Feature","properties":{"name":"Port Moresby","country":"Papua New Guinea","pop":283733},"geometry":{"type":"Point","coordinates":[147.193,-9.465]}},{"type":"Feature","properties":{"name":"Honiara","country":"Solomon Islands","pop":76328},"geometry":{"type":"Point","coordinates":[159.95,-9.438]}},{"type":"Feature","properties":{"name":"Panama City","country":"Panama","pop":1281000},"geometry":{"type":"Point","coordinates":[-79.535,8.97]}},{"type":"Feature","properties":{"name":"Rabat","country":"Morocco","pop":1705000},"geometry":{"type":"Point","coordinates":[-6.836,34.025]}},{"type":"Feature","properties":{"name":"Chi\u0219in\u0103u","country":"Moldova","pop":688134},"geometry":{"type":"Point","coordinates":[28.858,47.005]}},{"type":"Feature","properties":{"name":"Maputo","country":"Mozambique","pop":1446000},"geometry":{"type":"Point","coordinates":[32.587,-25.953]}},{"type":"Feature","properties":{"name":"Mogadishu","country":"Somalia","pop":1100000},"geometry":{"type":"Point","coordinates":[45.365,2.069]}},{"type":"Feature","properties":{"name":"Muscat","country":"Oman","pop":734697},"geometry":{"type":"Point","coordinates":[58.378,23.585]}},{"type":"Feature","properties":{"name":"Colombo","country":"Sri Lanka","pop":217000},"geometry":{"type":"Point","coordinates":[79.858,6.932]}},{"type":"Feature","properties":{"name":"Ulaanbaatar","country":"Mongolia","pop":885000},"geometry":{"type":"Point","coordinates":[106.915,47.919]}},{"type":"Feature","properties":{"name":"Windhoek","country":"Namibia","pop":268132},"geometry":{"type":"Point","coordinates":[17.084,-22.57]}},{"type":"Feature","properties":{"name":"Abuja","country":"Nigeria","pop":1576000},"geometry":{"type":"Point","coordinates":[7.49,9.055]}},{"type":"Feature","properties":{"name":"Bissau","country":"Guinea Bissau","pop":403339},"geometry":{"type":"Point","coordinates":[-15.598,11.865]}},{"type":"Feature","properties":{"name":"Amman","country":"Jordan","pop":1060000},"geometry":{"type":"Point","coordinates":[35.931,31.952]}},{"type":"Feature","properties":{"name":"Vilnius","country":"Lithuania","pop":542366},"geometry":{"type":"Point","coordinates":[25.317,54.683]}},{"type":"Feature","properties":{"name":"Riga","country":"Latvia","pop":742572},"geometry":{"type":"Point","coordinates":[24.1,56.95]}},{"type":"Feature","properties":{"name":"Bishkek","country":"Kyrgyzstan","pop":837000},"geometry":{"type":"Point","coordinates":[74.583,42.875]}},{"type":"Feature","properties":{"name":"Maseru","country":"Lesotho","pop":361324},"geometry":{"type":"Point","coordinates":[27.483,-29.317]}},{"type":"Feature","properties":{"name":"Antananarivo","country":"Madagascar","pop":1697000},"geometry":{"type":"Point","coordinates":[47.515,-18.915]}},{"type":"Feature","properties":{"name":"Quito","country":"Ecuador","pop":1701000},"geometry":{"type":"Point","coordinates":[-78.502,-0.213]}},{"type":"Feature","properties":{"name":"San Jos\u00e9","country":"Costa Rica","pop":1284000},"geometry":{"type":"Point","coordinates":[-84.079,9.93]}},{"type":"Feature","properties":{"name":"San Salvador","country":"El Salvador","pop":1433000},"geometry":{"type":"Point","coordinates":[-89.216,13.703]}},{"type":"Feature","properties":{"name":"Kingston","country":"Jamaica","pop":937700},"geometry":{"type":"Point","coordinates":[-76.767,17.977]}},{"type":"Feature","properties":{"name":"N'Djamena","country":"Chad","pop":989000},"geometry":{"type":"Point","coordinates":[15.047,12.115]}},{"type":"Feature","properties":{"name":"Malabo","country":"Equatorial Guinea","pop":155963},"geometry":{"type":"Point","coordinates":[8.783,3.75]}},{"type":"Feature","properties":{"name":"Asmara","country":"Eritrea","pop":620802},"geometry":{"type":"Point","coordinates":[38.933,15.333]}},{"type":"Feature","properties":{"name":"Zagreb","country":"Croatia","pop":722526},"geometry":{"type":"Point","coordinates":[16.0,45.8]}},{"type":"Feature","properties":{"name":"Tallinn","country":"Estonia","pop":394024},"geometry":{"type":"Point","coordinates":[24.728,59.434]}},{"type":"Feature","properties":{"name":"Lilongwe","country":"Malawi","pop":646750},"geometry":{"type":"Point","coordinates":[33.783,-13.983]}},{"type":"Feature","properties":{"name":"Guatemala City","country":"Guatemala","pop":1024000},"geometry":{"type":"Point","coordinates":[-90.529,14.623]}},{"type":"Feature","properties":{"name":"Libreville","country":"Gabon","pop":578156},"geometry":{"type":"Point","coordinates":[9.458,0.385]}},{"type":"Feature","properties":{"name":"Suva","country":"Fiji","pop":175399},"geometry":{"type":"Point","coordinates":[178.442,-18.133]}},{"type":"Feature","properties":{"name":"Valpara\u00edso","country":"Chile","pop":854000},"geometry":{"type":"Point","coordinates":[-71.617,-33.048]}},{"type":"Feature","properties":{"name":"Nouakchott","country":"Mauritania","pop":742144},"geometry":{"type":"Point","coordinates":[-15.975,18.086]}},{"type":"Feature","properties":{"name":"Bamako","country":"Mali","pop":1494000},"geometry":{"type":"Point","coordinates":[-8.002,12.652]}},{"type":"Feature","properties":{"name":"Beirut","country":"Lebanon","pop":1846000},"geometry":{"type":"Point","coordinates":[35.508,33.874]}},{"type":"Feature","properties":{"name":"Tbilisi","country":"Georgia","pop":1100000},"geometry":{"type":"Point","coordinates":[44.789,41.727]}},{"type":"Feature","properties":{"name":"Nur-Sultan","country":"Kazakhstan","pop":345604},"geometry":{"type":"Point","coordinates":[71.428,51.181]}},{"type":"Feature","properties":{"name":"Vientiane","country":"Laos","pop":754000},"geometry":{"type":"Point","coordinates":[102.6,17.967]}},{"type":"Feature","properties":{"name":"Brazzaville","country":"Congo (Brazzaville)","pop":1355000},"geometry":{"type":"Point","coordinates":[15.283,-4.257]}},{"type":"Feature","properties":{"name":"Conakry","country":"Guinea","pop":1494000},"geometry":{"type":"Point","coordinates":[-13.682,9.533]}},{"type":"Feature","properties":{"name":"Yamoussoukro","country":"Ivory Coast","pop":206499},"geometry":{"type":"Point","coordinates":[-5.276,6.818]}},{"type":"Feature","properties":{"name":"Ottawa","country":"Canada","pop":1145000},"geometry":{"type":"Point","coordinates":[-75.702,45.419]}},{"type":"Feature","properties":{"name":"Belgrade","country":"Serbia","pop":1099000},"geometry":{"type":"Point","coordinates":[20.466,44.821]}},{"type":"Feature","properties":{"name":"Bandar Seri Begawan","country":"Brunei","pop":296500},"geometry":{"type":"Point","coordinates":[114.933,4.883]}},{"type":"Feature","properties":{"name":"Sucre","country":"Bolivia","pop":224838},"geometry":{"type":"Point","coordinates":[-65.26,-19.041]}},{"type":"Feature","properties":{"name":"Belmopan","country":"Belize","pop":15220},"geometry":{"type":"Point","coordinates":[-88.767,17.252]}},{"type":"Feature","properties":{"name":"Bangui","country":"Central African Republic","pop":831925},"geometry":{"type":"Point","coordinates":[18.558,4.367]}},{"type":"Feature","properties":{"name":"Yaound\u00e9","country":"Cameroon","pop":1611000},"geometry":{"type":"Point","coordinates":[11.515,3.869]}},{"type":"Feature","properties":{"name":"Tirana","country":"Albania","pop":895350},"geometry":{"type":"Point","coordinates":[19.819,41.328]}},{"type":"Feature","properties":{"name":"Yerevan","country":"Armenia","pop":1102000},"geometry":{"type":"Point","coordinates":[44.512,40.183]}},{"type":"Feature","properties":{"name":"Baku","country":"Azerbaijan","pop":2122300},"geometry":{"type":"Point","coordinates":[49.86,40.397]}},{"type":"Feature","properties":{"name":"Phnom Penh","country":"Cambodia","pop":1466000},"geometry":{"type":"Point","coordinates":[104.915,11.552]}},{"type":"Feature","properties":{"name":"La Paz","country":"Bolivia","pop":1590000},"geometry":{"type":"Point","coordinates":[-68.152,-16.496]}},{"type":"Feature","properties":{"name":"Cotonou","country":"Benin","pop":762000},"geometry":{"type":"Point","coordinates":[2.404,6.363]}},{"type":"Feature","properties":{"name":"Sofia","country":"Bulgaria","pop":1185000},"geometry":{"type":"Point","coordinates":[23.315,42.685]}},{"type":"Feature","properties":{"name":"Minsk","country":"Belarus","pop":1805000},"geometry":{"type":"Point","coordinates":[27.565,53.902]}},{"type":"Feature","properties":{"name":"Thimphu","country":"Bhutan","pop":98676},"geometry":{"type":"Point","coordinates":[89.639,27.473]}},{"type":"Feature","properties":{"name":"Gaborone","country":"Botswana","pop":208411},"geometry":{"type":"Point","coordinates":[25.912,-24.646]}},{"type":"Feature","properties":{"name":"Canberra","country":"Australia","pop":327700},"geometry":{"type":"Point","coordinates":[149.129,-35.283]}},{"type":"Feature","properties":{"name":"Ouagadougou","country":"Burkina Faso","pop":1149000},"geometry":{"type":"Point","coordinates":[-1.527,12.372]}},{"type":"Feature","properties":{"name":"Sarajevo","country":"Bosnia and Herzegovina","pop":696731},"geometry":{"type":"Point","coordinates":[18.383,43.85]}},{"type":"Feature","properties":{"name":"Naypyidaw","country":"Myanmar","pop":930000},"geometry":{"type":"Point","coordinates":[96.117,19.769]}},{"type":"Feature","properties":{"name":"Nuku'alofa","country":"Tonga","pop":42620},"geometry":{"type":"Point","coordinates":[-175.221,-21.139]}},{"type":"Feature","properties":{"name":"Hargeisa","country":"Somaliland","pop":477876},"geometry":{"type":"Point","coordinates":[44.065,9.56]}},{"type":"Feature","properties":{"name":"Victoria","country":"Seychelles","pop":33576},"geometry":{"type":"Point","coordinates":[55.45,-4.617]}},{"type":"Feature","properties":{"name":"S\u00e3o Tom\u00e9","country":"Sao Tome and Principe","pop":88219},"geometry":{"type":"Point","coordinates":[6.73,0.337]}},{"type":"Feature","properties":{"name":"Apia","country":"Samoa","pop":61916},"geometry":{"type":"Point","coordinates":[-171.769,-13.836]}},{"type":"Feature","properties":{"name":"Valletta","country":"Malta","pop":368250},"geometry":{"type":"Point","coordinates":[14.515,35.9]}},{"type":"Feature","properties":{"name":"Mal\u00e9","country":"Maldives","pop":112927},"geometry":{"type":"Point","coordinates":[73.509,4.172]}},{"type":"Feature","properties":{"name":"Jerusalem","country":"Israel","pop":1029300},"geometry":{"type":"Point","coordinates":[35.207,31.778]}},{"type":"Feature","properties":{"name":"Praia","country":"Cape Verde","pop":113364},"geometry":{"type":"Point","coordinates":[-23.517,14.917]}},{"type":"Feature","properties":{"name":"Nassau","country":"The Bahamas","pop":227940},"geometry":{"type":"Point","coordinates":[-77.35,25.083]}},{"type":"Feature","properties":{"name":"Nicosia","country":"Cyprus","pop":224300},"geometry":{"type":"Point","coordinates":[33.367,35.167]}},{"type":"Feature","properties":{"name":"Wellington","country":"New Zealand","pop":393400},"geometry":{"type":"Point","coordinates":[174.777,-41.292]}},{"type":"Feature","properties":{"name":"Hanoi","country":"Vietnam","pop":4378000},"geometry":{"type":"Point","coordinates":[105.848,21.035]}},{"type":"Feature","properties":{"name":"Ankara","country":"Turkey","pop":3716000},"geometry":{"type":"Point","coordinates":[32.862,39.929]}},{"type":"Feature","properties":{"name":"Budapest","country":"Hungary","pop":1679000},"geometry":{"type":"Point","coordinates":[19.081,47.502]}},{"type":"Feature","properties":{"name":"Sanaa","country":"Yemen","pop":2008000},"geometry":{"type":"Point","coordinates":[44.205,15.357]}},{"type":"Feature","properties":{"name":"Bucharest","country":"Romania","pop":1942000},"geometry":{"type":"Point","coordinates":[26.098,44.435]}},{"type":"Feature","properties":{"name":"Damascus","country":"Syria","pop":2466000},"geometry":{"type":"Point","coordinates":[36.298,33.502]}},{"type":"Feature","properties":{"name":"Lisbon","country":"Portugal","pop":2812000},"geometry":{"type":"Point","coordinates":[-9.147,38.725]}},{"type":"Feature","properties":{"name":"Khartoum","country":"Sudan","pop":4754000},"geometry":{"type":"Point","coordinates":[32.532,15.59]}},{"type":"Feature","properties":{"name":"Oslo","country":"Norway","pop":835000},"geometry":{"type":"Point","coordinates":[10.748,59.919]}},{"type":"Feature","properties":{"name":"Warsaw","country":"Poland","pop":1707000},"geometry":{"type":"Point","coordinates":[21.005,52.231]}},{"type":"Feature","properties":{"name":"Pyongyang","country":"North Korea","pop":3300000},"geometry":{"type":"Point","coordinates":[125.753,39.021]}},{"type":"Feature","properties":{"name":"Dar es Salaam","country":"Tanzania","pop":2930000},"geometry":{"type":"Point","coordinates":[39.266,-6.798]}},{"type":"Feature","properties":{"name":"Dublin","country":"Ireland","pop":1059000},"geometry":{"type":"Point","coordinates":[-6.257,53.347]}},{"type":"Feature","properties":{"name":"Monrovia","country":"Liberia","pop":1041000},"geometry":{"type":"Point","coordinates":[-10.8,6.315]}},{"type":"Feature","properties":{"name":"Kuala Lumpur","country":"Malaysia","pop":1448000},"geometry":{"type":"Point","coordinates":[101.689,3.14]}},{"type":"Feature","properties":{"name":"Havana","country":"Cuba","pop":2174000},"geometry":{"type":"Point","coordinates":[-82.366,23.134]}},{"type":"Feature","properties":{"name":"Prague","country":"Czechia","pop":1162000},"geometry":{"type":"Point","coordinates":[14.423,50.087]}},{"type":"Feature","properties":{"name":"Kuwait City","country":"Kuwait","pop":2063000},"geometry":{"type":"Point","coordinates":[47.976,29.372]}},{"type":"Feature","properties":{"name":"Santo Domingo","country":"Dominican Republic","pop":2154000},"geometry":{"type":"Point","coordinates":[-69.93,18.471]}},{"type":"Feature","properties":{"name":"Accra","country":"Ghana","pop":2121000},"geometry":{"type":"Point","coordinates":[-0.219,5.552]}},{"type":"Feature","properties":{"name":"Tripoli","country":"Libya","pop":2189000},"geometry":{"type":"Point","coordinates":[13.18,32.892]}},{"type":"Feature","properties":{"name":"Tel Aviv","country":"Israel","pop":3112000},"geometry":{"type":"Point","coordinates":[34.768,32.082]}},{"type":"Feature","properties":{"name":"Helsinki","country":"Finland","pop":1115000},"geometry":{"type":"Point","coordinates":[24.932,60.164]}},{"type":"Feature","properties":{"name":"K\u00f8benhavn","country":"Denmark","pop":1085000},"geometry":{"type":"Point","coordinates":[12.562,55.681]}},{"type":"Feature","properties":{"name":"Abidjan","country":"Ivory Coast","pop":3802000},"geometry":{"type":"Point","coordinates":[-4.02,5.323]}},{"type":"Feature","properties":{"name":"Bras\u00edlia","country":"Brazil","pop":3716996},"geometry":{"type":"Point","coordinates":[-47.918,-15.781]}},{"type":"Feature","properties":{"name":"Brussels","country":"Belgium","pop":1743000},"geometry":{"type":"Point","coordinates":[4.331,50.835]}},{"type":"Feature","properties":{"name":"Dhaka","country":"Bangladesh","pop":12797394},"geometry":{"type":"Point","coordinates":[90.407,23.725]}},{"type":"Feature","properties":{"name":"Luanda","country":"Angola","pop":5172900},"geometry":{"type":"Point","coordinates":[13.232,-8.836]}},{"type":"Feature","properties":{"name":"Algiers","country":"Algeria","pop":3354000},"geometry":{"type":"Point","coordinates":[3.049,36.765]}},{"type":"Feature","properties":{"name":"Yangon","country":"Myanmar","pop":4088000},"geometry":{"type":"Point","coordinates":[96.165,16.785]}},{"type":"Feature","properties":{"name":"San Francisco","country":"United States of America","pop":3450000},"geometry":{"type":"Point","coordinates":[-122.4,37.784]}},{"type":"Feature","properties":{"name":"Denver","country":"United States of America","pop":2313000},"geometry":{"type":"Point","coordinates":[-104.986,39.741]}},{"type":"Feature","properties":{"name":"Houston","country":"United States of America","pop":4459000},"geometry":{"type":"Point","coordinates":[-95.348,29.741]}},{"type":"Feature","properties":{"name":"Miami","country":"United States of America","pop":5585000},"geometry":{"type":"Point","coordinates":[-80.226,25.79]}},{"type":"Feature","properties":{"name":"Atlanta","country":"United States of America","pop":4506000},"geometry":{"type":"Point","coordinates":[-84.368,33.739]}},{"type":"Feature","properties":{"name":"Chicago","country":"United States of America","pop":8990000},"geometry":{"type":"Point","coordinates":[-87.635,41.848]}},{"type":"Feature","properties":{"name":"Caracas","country":"Venezuela","pop":2985000},"geometry":{"type":"Point","coordinates":[-66.919,10.503]}},{"type":"Feature","properties":{"name":"Kyiv","country":"Ukraine","pop":2709000},"geometry":{"type":"Point","coordinates":[30.515,50.435]}},{"type":"Feature","properties":{"name":"Dubai","country":"United Arab Emirates","pop":1379000},"geometry":{"type":"Point","coordinates":[55.287,25.215]}},{"type":"Feature","properties":{"name":"Tashkent","country":"Uzbekistan","pop":2184000},"geometry":{"type":"Point","coordinates":[69.269,41.304]}},{"type":"Feature","properties":{"name":"Madrid","country":"Spain","pop":5567000},"geometry":{"type":"Point","coordinates":[-3.685,40.402]}},{"type":"Feature","properties":{"name":"Geneva","country":"Switzerland","pop":1240000},"geometry":{"type":"Point","coordinates":[6.14,46.21]}},{"type":"Feature","properties":{"name":"Stockholm","country":"Sweden","pop":1264000},"geometry":{"type":"Point","coordinates":[18.066,59.324]}},{"type":"Feature","properties":{"name":"Bangkok","country":"Thailand","pop":6704000},"geometry":{"type":"Point","coordinates":[100.515,13.752]}},{"type":"Feature","properties":{"name":"Lima","country":"Peru","pop":8012000},"geometry":{"type":"Point","coordinates":[-77.052,-12.046]}},{"type":"Feature","properties":{"name":"Dakar","country":"Senegal","pop":2604000},"geometry":{"type":"Point","coordinates":[-17.475,14.718]}},{"type":"Feature","properties":{"name":"Johannesburg","country":"South Africa","pop":3435000},"geometry":{"type":"Point","coordinates":[28.028,-26.168]}},{"type":"Feature","properties":{"name":"Amsterdam","country":"Netherlands","pop":1031000},"geometry":{"type":"Point","coordinates":[4.915,52.352]}},{"type":"Feature","properties":{"name":"Casablanca","country":"Morocco","pop":3181000},"geometry":{"type":"Point","coordinates":[-7.618,33.602]}},{"type":"Feature","properties":{"name":"Seoul","country":"South Korea","pop":9796000},"geometry":{"type":"Point","coordinates":[126.998,37.568]}},{"type":"Feature","properties":{"name":"Manila","country":"Philippines","pop":11100000},"geometry":{"type":"Point","coordinates":[120.98,14.606]}},{"type":"Feature","properties":{"name":"Monterrey","country":"Mexico","pop":3712000},"geometry":{"type":"Point","coordinates":[-100.332,25.672]}},{"type":"Feature","properties":{"name":"Berlin","country":"Germany","pop":3406000},"geometry":{"type":"Point","coordinates":[13.4,52.524]}},{"type":"Feature","properties":{"name":"\u00dcr\u00fcmqi","country":"China","pop":3575000},"geometry":{"type":"Point","coordinates":[87.573,43.807]}},{"type":"Feature","properties":{"name":"Chengdu","country":"China","pop":4123000},"geometry":{"type":"Point","coordinates":[104.068,30.672]}},{"type":"Feature","properties":{"name":"\u014csaka","country":"Japan","pop":11294000},"geometry":{"type":"Point","coordinates":[135.504,34.691]}},{"type":"Feature","properties":{"name":"Kinshasa","country":"Congo (Kinshasa)","pop":7843000},"geometry":{"type":"Point","coordinates":[15.313,-4.328]}},{"type":"Feature","properties":{"name":"New Delhi","country":"India","pop":317797},"geometry":{"type":"Point","coordinates":[77.2,28.6]}},{"type":"Feature","properties":{"name":"Bengaluru","country":"India","pop":6787000},"geometry":{"type":"Point","coordinates":[77.558,12.972]}},{"type":"Feature","properties":{"name":"Athens","country":"Greece","pop":3242000},"geometry":{"type":"Point","coordinates":[23.731,37.985]}},{"type":"Feature","properties":{"name":"Baghdad","country":"Iraq","pop":5054000},"geometry":{"type":"Point","coordinates":[44.392,33.341]}},{"type":"Feature","properties":{"name":"Addis Ababa","country":"Ethiopia","pop":3100000},"geometry":{"type":"Point","coordinates":[38.698,9.035]}},{"type":"Feature","properties":{"name":"Tehran","country":"Iran","pop":7873000},"geometry":{"type":"Point","coordinates":[51.422,35.674]}},{"type":"Feature","properties":{"name":"Vancouver","country":"Canada","pop":2313328},"geometry":{"type":"Point","coordinates":[-123.124,49.275]}},{"type":"Feature","properties":{"name":"Toronto","country":"Canada","pop":5213000},"geometry":{"type":"Point","coordinates":[-79.389,43.665]}},{"type":"Feature","properties":{"name":"Buenos Aires","country":"Argentina","pop":12795000},"geometry":{"type":"Point","coordinates":[-58.433,-34.611]}},{"type":"Feature","properties":{"name":"Kabul","country":"Afghanistan","pop":3277000},"geometry":{"type":"Point","coordinates":[69.181,34.519]}},{"type":"Feature","properties":{"name":"Vienna","country":"Austria","pop":2400000},"geometry":{"type":"Point","coordinates":[16.365,48.202]}},{"type":"Feature","properties":{"name":"Melbourne","country":"Australia","pop":4170000},"geometry":{"type":"Point","coordinates":[144.973,-37.818]}},{"type":"Feature","properties":{"name":"Taipei","country":"Taiwan","pop":6900273},"geometry":{"type":"Point","coordinates":[121.568,25.036]}},{"type":"Feature","properties":{"name":"Auckland","country":"New Zealand","pop":1377200},"geometry":{"type":"Point","coordinates":[174.763,-36.848]}},{"type":"Feature","properties":{"name":"Los Angeles","country":"United States of America","pop":12500000},"geometry":{"type":"Point","coordinates":[-118.232,34.049]}},{"type":"Feature","properties":{"name":"Washington,  D.C.","country":"United States of America","pop":4338000},"geometry":{"type":"Point","coordinates":[-77.011,38.901]}},{"type":"Feature","properties":{"name":"New York","country":"United States of America","pop":19040000},"geometry":{"type":"Point","coordinates":[-73.996,40.722]}},{"type":"Feature","properties":{"name":"London","country":"United Kingdom","pop":8567000},"geometry":{"type":"Point","coordinates":[-0.119,51.502]}},{"type":"Feature","properties":{"name":"Istanbul","country":"Turkey","pop":10061000},"geometry":{"type":"Point","coordinates":[28.974,41.018]}},{"type":"Feature","properties":{"name":"Riyadh","country":"Saudi Arabia","pop":4465000},"geometry":{"type":"Point","coordinates":[46.72,24.634]}},{"type":"Feature","properties":{"name":"Cape Town","country":"South Africa","pop":3215000},"geometry":{"type":"Point","coordinates":[18.433,-33.918]}},{"type":"Feature","properties":{"name":"Moscow","country":"Russia","pop":10452000},"geometry":{"type":"Point","coordinates":[37.614,55.754]}},{"type":"Feature","properties":{"name":"Mexico City","country":"Mexico","pop":19028000},"geometry":{"type":"Point","coordinates":[-99.133,19.444]}},{"type":"Feature","properties":{"name":"Lagos","country":"Nigeria","pop":9466000},"geometry":{"type":"Point","coordinates":[3.39,6.445]}},{"type":"Feature","properties":{"name":"Rome","country":"Italy","pop":3339000},"geometry":{"type":"Point","coordinates":[12.481,41.898]}},{"type":"Feature","properties":{"name":"Beijing","country":"China","pop":11106000},"geometry":{"type":"Point","coordinates":[116.394,39.902]}},{"type":"Feature","properties":{"name":"Nairobi","country":"Kenya","pop":3010000},"geometry":{"type":"Point","coordinates":[36.815,-1.281]}},{"type":"Feature","properties":{"name":"Jakarta","country":"Indonesia","pop":9125000},"geometry":{"type":"Point","coordinates":[106.827,-6.172]}},{"type":"Feature","properties":{"name":"Bogota","country":"Colombia","pop":7772000},"geometry":{"type":"Point","coordinates":[-74.085,4.598]}},{"type":"Feature","properties":{"name":"Cairo","country":"Egypt","pop":11893000},"geometry":{"type":"Point","coordinates":[31.248,30.052]}},{"type":"Feature","properties":{"name":"Shanghai","country":"China","pop":14987000},"geometry":{"type":"Point","coordinates":[121.435,31.218]}},{"type":"Feature","properties":{"name":"Tokyo","country":"Japan","pop":35676000},"geometry":{"type":"Point","coordinates":[139.749,35.687]}},{"type":"Feature","properties":{"name":"Mumbai","country":"India","pop":18978000},"geometry":{"type":"Point","coordinates":[72.876,19.068]}},{"type":"Feature","properties":{"name":"Paris","country":"France","pop":9904000},"geometry":{"type":"Point","coordinates":[2.353,48.858]}},{"type":"Feature","properties":{"name":"Santiago","country":"Chile","pop":5720000},"geometry":{"type":"Point","coordinates":[-70.651,-33.44]}},{"type":"Feature","properties":{"name":"Kolkata","country":"India","pop":14787000},"geometry":{"type":"Point","coordinates":[88.369,22.57]}},{"type":"Feature","properties":{"name":"Rio de Janeiro","country":"Brazil","pop":11748000},"geometry":{"type":"Point","coordinates":[-43.212,-22.907]}},{"type":"Feature","properties":{"name":"S\u00e3o Paulo","country":"Brazil","pop":18845000},"geometry":{"type":"Point","coordinates":[-46.627,-23.557]}},{"type":"Feature","properties":{"name":"Sydney","country":"Australia","pop":4630000},"geometry":{"type":"Point","coordinates":[151.213,-33.871]}},{"type":"Feature","properties":{"name":"Singapore","country":"Singapore","pop":5183700},"geometry":{"type":"Point","coordinates":[103.854,1.295]}},{"type":"Feature","properties":{"name":"Hong Kong","country":"Hong Kong S.A.R.","pop":7206000},"geometry":{"type":"Point","coordinates":[114.183,22.307]}}]}