{
  "type": "FeatureCollection",
  "features": [
    { "type": "Feature", "properties": { "NAME": "Switzerland", "ABBREV": "Switz." }, "geometry": { "type": "Point", "coordinates": [8.2, 46.8] } },
    { "type": "Feature", "properties": { "NAME": "Austria", "ABBREV": "Aust." }, "geometry": { "type": "Point", "coordinates": [14.1, 47.6] } },
    { "type": "Feature", "properties": { "NAME": "Germany", "ABBREV": "Ger." }, "geometry": { "type": "Point", "coordinates": [10.0, 49.6] } },
    { "type": "Feature", "properties": { "NAME": "France", "ABBREV": "Fr." }, "geometry": { "type": "Point", "coordinates": [3.4, 47.2] } },
    { "type": "Feature", "properties": { "NAME": "Italy", "ABBREV": "Italy" }, "geometry": { "type": "Point", "coordinates": [11.0, 44.2] } },
    { "type": "Feature", "properties": { "NAME": "Liechtenstein", "ABBREV": "Liech." }, "geometry": { "type": "Point", "coordinates": [9.55, 47.15] } },
    { "type": "Feature", "properties": { "NAME": "Slovenia", "ABBREV": "Slo." }, "geometry": { "type": "Point", "coordinates": [14.8, 46.1] } }
  ]
}
